#aV2024 10 18  0  0  0.00000000     288 DD+AD WGS84 FIT  NGA
## 2336 432000.00000000   300.00000000 60601 0.0000000000000
+   31     2  3  4  5  6  7  8  9 10 11 12 13 14 15 16 17 18
+         19 20 21 22 23 24 25 26 27 28 29 30 31 32  0  0  0
+          0  0  0  0  0  0  0  0  0  0  0  0  0  0  0  0  0
+          0  0  0  0  0  0  0  0  0  0  0  0  0  0  0  0  0
+          0  0  0  0  0  0  0  0  0  0  0  0  0  0  0  0  0
++         2  2  2  2  2  2  2  2  2  2  2  2  2  2  2  2  2
++         2  2  2  2  2  2  2  2  2  2  2  2  2  2  0  0  0
++         0  0  0  0  0  0  0  0  0  0  0  0  0  0  0  0  0
++         0  0  0  0  0  0  0  0  0  0  0  0  0  0  0  0  0
++         0  0  0  0  0  0  0  0  0  0  0  0  0  0  0  0  0
%c cc cc ccc ccc cccc cccc cccc cccc ccccc ccccc ccccc ccccc
%c cc cc ccc ccc cccc cccc cccc cccc ccccc ccccc ccccc ccccc
%f  0.0000000  0.000000000  0.00000000000  0.000000000000000
%f  0.0000000  0.000000000  0.00000000000  0.000000000000000
%i    0    0    0    0      0      0      0      0         0
%i    0    0    0    0      0      0      0      0         0
/*      NGA, ST. LOUIS,MO.                                  
/*   EPHEMERIS COMPUTED FROM 2 DAYS OF DATA                 
/*   EPOCHA v9 SMOOTHER                                     
/*   G2296 IERS2010 SATIGS SATAPC                           
*  2024 10 18 18 50  0.00000000
P  2 -22667.804573 -13046.492985   6051.360605   -334.233923                    
V  2  -4060.668398  -6101.901284 -30447.503648      0.082930                    
P  3 -13625.976099  -5398.372621  21988.438255    574.246297                    
V  3   7042.129313 -27352.216185  -2229.074004      0.116971                    
P  4 -24097.451314  -1947.613919  11180.234887    464.016988                    
V  4  13165.328417  -5544.489875  27297.409030      0.067627                    
P  5   6768.132109  20498.278914 -15612.197613   -190.206166                    
V  5  -5440.365202  18796.248531  22645.528647     -0.012022                    
P  6  -2634.438863  16535.631579  20658.987767    -48.091997                    
V  6 -18950.335916 -17854.550262  12019.357669     -0.277878                    
P  7 -19045.035748   -342.526386 -18162.610264    -26.566681                    
V  7 -16221.158508 -17793.914084  16410.607653      0.032120                    
P  8 -16230.828153  -9117.670904 -19218.357017    388.243447                    
V  8  22472.060973  -8645.142509 -14532.528131      0.114182                    
P  9 -25648.661379   6766.121351   1808.150644    404.418404                    
V  9   1446.393518  -3408.906586  31568.626579      0.165915                    
P 10  10317.266692 -23320.175112  -6546.124559   -163.185110                    
V 10     53.623151   8938.266592 -31070.808478     -0.135104                    
P 11  10315.153078  21940.109132  10955.227104   -744.882632                    
V 11 -11121.571319  -8517.678758  27554.506065     -0.027934                    
P 12  12084.613545  10288.640924  21020.747421   -546.038255                    
V 12  -9019.576011  25819.131059  -7311.068810     -0.026367                    
P 13   7431.767717  13889.600425 -21648.654571    682.062532                    
V 13 -26568.707089   4046.162584  -6363.501577      0.017787                    
P 14 -13056.573605  20730.216565  -9921.274991    520.436929                    
V 14    325.957393 -13139.794764 -27984.013856      0.083907                    
P 15  17340.863177   7523.713782 -19241.002943    217.279223                    
V 15 -20559.603465  11219.612733 -14384.138772      0.044717                    
P 16  -1491.141368 -23193.928995 -12771.413809   -151.467766                    
V 16   7498.962699 -14181.544384  26005.115181      0.099688                    
P 17 -18598.603122  13785.291342  13599.398256    590.958341                    
V 17 -16500.792723   1810.061408 -25003.939421     -0.131248                    
P 18  17830.147909  -1072.022335 -19705.585664   -658.384992                    
V 18  16973.052435  18335.249667  14119.533749     -0.012259                    
P 19  -9763.873836  15203.565425  19169.276908    552.103806                    
V 19 -24668.745417   2846.018386 -15126.109992      0.046535                    
P 20   1646.889599  26157.468207  -4695.966938    369.550677                    
V 20  -3168.625068   5843.226141  30805.100060     -0.003550                    
P 21 -21280.044286 -16860.117638    173.572133     99.483246                    
V 21   1388.958849  -1314.850362 -31064.746102     -0.008230                    
P 22  -9671.303493  24845.367127  -1461.220919    -72.165422                    
V 22  -1682.194325  -3040.510645 -31481.704752     -0.032792                    
P 23  14896.348485 -12996.486908 -17592.396762    344.448523                    
V 23  -3406.396362  22228.066392 -19489.409164      0.081520                    
P 24  22066.708131  14840.109918   2717.841972   -484.318493                    
V 24   1062.291265   5059.549254 -30644.170498      0.013303                    
P 25  15944.229210  -4303.306581  20403.347065    499.476672                    
V 25  -4849.680963  26371.869686   9455.171282     -0.001341                    
P 26   3865.791267 -26064.346976   -400.662326     52.486362                    
V 26   4101.570932    329.693102  31315.264992     -0.094958                    
P 27  -4759.639865 -14627.990772 -21949.623997    -34.615125                    
V 27  26086.093842  -7603.080718   -176.919008     -0.001607                    
P 28   4439.571802 -15696.019375  20947.085090   -450.247135                    
V 28  20254.158503  17303.063339   8669.994406     -0.127404                    
P 29  26232.041673  -3114.236465   3324.416085   -570.328726                    
V 29  -3669.686671   3246.438666  31480.355136      0.026665                    
P 30 -11950.518471  10241.677876 -21257.641968   -299.813823                    
V 30 -19713.307466 -19066.773172   1616.593995      0.075297                    
P 31  -6166.406696 -20933.253867  14635.549300   -223.191759                    
V 31  15300.620869  11821.359702  23351.397967      0.005779                    
P 32  15942.723864 -15427.607785  14667.995878   -585.173162                    
V 32  18168.819888  -3215.588286 -23676.999947      0.045410                    
EOF
